ONEWEB-0656             
1 55817U 23029X   25100.78432402 -.00000011  00000+0 -59726-4 0  9996
2 55817  87.9330   0.4983 0002043  93.4200 266.7167 13.20774636104075
ONEWEB-0657             
1 55818U 23029Y   25100.84142957 -.00000401  00000+0 -10344-2 0  9991
2 55818  87.9255  30.9206 0001465 104.0956 256.0339 13.19725134101888
ONEWEB-0658             
1 55819U 23029Z   25100.83670452  .00000042  00000+0  73438-4 0  9991
2 55819  87.9258  30.8554 0001669  63.9616 296.1688 13.19724184101896
ONEWEB-0660             
1 55820U 23029AA  25100.77763563 -.00000418  00000+0 -11633-2 0  9998
2 55820  87.9100  15.6771 0002155  70.3775 289.7587 13.14503291102598
ONEWEB-0661             
1 55821U 23029AB  25100.81251733  .00000022  00000+0  25975-4 0  9990
2 55821  87.9094  15.7400 0002178  72.4402 287.6965 13.14503689102583
ONEWEB-0662             
1 55822U 23029AC  25100.77128431 -.00000044  00000+0 -15321-3 0  9993
2 55822  87.9099  15.7552 0002030  68.2295 291.9050 13.14504692102620
ONEWEB-0663             
1 55823U 23029AD  25100.76870793  .00000032  00000+0  47682-4 0  9999
2 55823  87.9330   0.5578 0001951  66.9746 293.1593 13.20832399104067
ONEWEB-0664             
1 55824U 23029AE  25100.77170337 -.00000003  00000+0 -38375-4 0  9997
2 55824  87.9332   0.5766 0002273  82.2502 277.8889 13.20770181104065
